{"type": "FeatureCollection", "features": [ {"type": "Feature", "properties": {"norad_id": 66479, "name": "STARLINK-35581", "group": "last-30-days", "lat": -9.710738506376654, "lon": 83.84492236559356, "alt_km": 415.9492058717451, "timestamp": "2025-12-08T17:43:03.631655+00:00", "meta": {"OBJECT_NAME": "STARLINK-35581", "OBJECT_ID": "2025-262Z", "EPOCH": "2025-12-08T06:00:02.999808", "MEAN_MOTION": 15.50631707, "ECCENTRICITY": 0.00012065, "INCLINATION": 43.0004, "RA_OF_ASC_NODE": 97.2831, "ARG_OF_PERICENTER": 254.4472, "MEAN_ANOMALY": 242.8023, "EPHEMERIS_TYPE": 0, "CLASSIFICATION_TYPE": "U", "NORAD_CAT_ID": 66479, "ELEMENT_SET_NO": 999, "REV_AT_EPOCH": 491, "BSTAR": -0.00090533397, "MEAN_MOTION_DOT": -0.00053192, "MEAN_MOTION_DDOT": 0}, "tle": {"line1": "1 66479U 25262Z   25342.25003472 -.00053192  00000+0 -90533-3 0  9992", "line2": "2 66479  43.0004  97.2831 0001206 254.4472 242.8023 15.50631707  4912"}}, "geometry": {"type": "Point", "coordinates": [83.84492236559356, -9.710738506376654]}}, {"type": "Feature", "properties": {"norad_id": 66480, "name": "STARLINK-35670", "group": "last-30-days", "lat": -5.894297298835314, "lon": 88.05137407180122, "alt_km": 415.58490813166645, "timestamp": "2025-12-08T17:43:03.631666+00:00", "meta": {"OBJECT_NAME": "STARLINK-35670", "OBJECT_ID": "2025-262AA", "EPOCH": "2025-12-08T06:00:02.999808", "MEAN_MOTION": 15.5058074, "ECCENTRICITY": 0.00015859, "INCLINATION": 43.0005, "RA_OF_ASC_NODE": 97.2683, "ARG_OF_PERICENTER": 261.8611, "MEAN_ANOMALY": 241.1256, "EPHEMERIS_TYPE": 0, "CLASSIFICATION_TYPE": "U", "NORAD_CAT_ID": 66480, "ELEMENT_SET_NO": 999, "REV_AT_EPOCH": 491, "BSTAR": -0.00069858769, "MEAN_MOTION_DOT": -0.00041112, "MEAN_MOTION_DDOT": 0}, "tle": {"line1": "1 66480U 25262AA  25342.25003472 -.00041112  00000+0 -69859-3 0  9990", "line2": "2 66480  43.0005  97.2683 0001585 261.8611 241.1256 15.50580740  4917"}}, "geometry": {"type": "Point", "coordinates": [88.05137407180122, -5.894297298835314]}}, {"type": "Feature", "properties": {"norad_id": 66481, "name": "STARLINK-35698", "group": "last-30-days", "lat": -4.594593974985805, "lon": 89.46025157774058, "alt_km": 415.35020996309413, "timestamp": "2025-12-08T17:43:03.631679+00:00", "meta": {"OBJECT_NAME": "STARLINK-35698", "OBJECT_ID": "2025-262AB", "EPOCH": "2025-12-08T06:00:02.999808", "MEAN_MOTION": 15.50560535, "ECCENTRICITY": 0.00016562, "INCLINATION": 43.0005, "RA_OF_ASC_NODE": 97.2637, "ARG_OF_PERICENTER": 265.8248, "MEAN_ANOMALY": 239.0846, "EPHEMERIS_TYPE": 0, "CLASSIFICATION_TYPE": "U", "NORAD_CAT_ID": 66481, "ELEMENT_SET_NO": 999, "REV_AT_EPOCH": 491, "BSTAR": -0.00013822976, "MEAN_MOTION_DOT": -8.437e-05, "MEAN_MOTION_DDOT": 0}, "tle": {"line1": "1 66481U 25262AB  25342.25003472 -.00008437  00000+0 -13823-3 0  9994", "line2": "2 66481  43.0005  97.2637 0001656 265.8248 239.0846 15.50560535  4917"}}, "geometry": {"type": "Point", "coordinates": [89.46025157774058, -4.594593974985805]}}, {"type": "Feature", "properties": {"norad_id": 66482, "name": "STARLINK-35648", "group": "last-30-days", "lat": -3.293265445777014, "lon": 90.86239730828403, "alt_km": 415.2181057989783, "timestamp": "2025-12-08T17:43:03.631690+00:00", "meta": {"OBJECT_NAME": "STARLINK-35648", "OBJECT_ID": "2025-262AC", "EPOCH": "2025-12-08T06:00:02.999808", "MEAN_MOTION": 15.50551764, "ECCENTRICITY": 0.00014596, "INCLINATION": 43.0004, "RA_OF_ASC_NODE": 97.2588, "ARG_OF_PERICENTER": 264.7905, "MEAN_ANOMALY": 242.0321, "EPHEMERIS_TYPE": 0, "CLASSIFICATION_TYPE": "U", "NORAD_CAT_ID": 66482, "ELEMENT_SET_NO": 999, "REV_AT_EPOCH": 476, "BSTAR": 0.00023256692, "MEAN_MOTION_DOT": 0.00013312, "MEAN_MOTION_DDOT": 0}, "tle": {"line1": "1 66482U 25262AC  25342.25003472  .00013312  00000+0  23257-3 0  9993", "line2": "2 66482  43.0004  97.2588 0001459 264.7905 242.0321 15.50551764  4760"}}, "geometry": {"type": "Point", "coordinates": [90.86239730828403, -3.293265445777014]}}, {"type": "Feature", "properties": {"norad_id": 66483, "name": "STARLINK-35654", "group": "last-30-days", "lat": -1.9858425800347193, "lon": 92.26455016175193, "alt_km": 415.1640265546648, "timestamp": "2025-12-08T17:43:03.631700+00:00", "meta": {"OBJECT_NAME": "STARLINK-35654", "OBJECT_ID": "2025-262AD", "EPOCH": "2025-12-08T06:00:02.999808", "MEAN_MOTION": 15.50567701, "ECCENTRICITY": 0.00015912, "INCLINATION": 43.0006, "RA_OF_ASC_NODE": 97.2531, "ARG_OF_PERICENTER": 263.324, "MEAN_ANOMALY": 245.4178, "EPHEMERIS_TYPE": 0, "CLASSIFICATION_TYPE": "U", "NORAD_CAT_ID": 66483, "ELEMENT_SET_NO": 999, "REV_AT_EPOCH": 491, "BSTAR": -0.00033769018, "MEAN_MOTION_DOT": -0.00020094, "MEAN_MOTION_DDOT": 0}, "tle": {"line1": "1 66483U 25262AD  25342.25003472 -.00020094  00000+0 -33769-3 0  9990", "line2": "2 66483  43.0006  97.2531 0001591 263.3240 245.4178 15.50567701  4917"}}, "geometry": {"type": "Point", "coordinates": [92.26455016175193, -1.9858425800347193]}}, {"type": "Feature", "properties": {"norad_id": 66484, "name": "STARLINK-35371", "group": "last-30-days", "lat": -0.6790270589316862, "lon": 93.66488787896635, "alt_km": 414.92120035337575, "timestamp": "2025-12-08T17:43:03.631711+00:00", "meta": {"OBJECT_NAME": "STARLINK-35371", "OBJECT_ID": "2025-262AE", "EPOCH": "2025-12-08T06:00:02.999808", "MEAN_MOTION": 15.50565374, "ECCENTRICITY": 0.00016584, "INCLINATION": 43.0004, "RA_OF_ASC_NODE": 97.2498, "ARG_OF_PERICENTER": 268.6088, "MEAN_ANOMALY": 242.0488, "EPHEMERIS_TYPE": 0, "CLASSIFICATION_TYPE": "U", "NORAD_CAT_ID": 66484, "ELEMENT_SET_NO": 999, "REV_AT_EPOCH": 491, "BSTAR": -0.00023978741, "MEAN_MOTION_DOT": -0.00014376, "MEAN_MOTION_DDOT": 0}, "tle": {"line1": "1 66484U 25262AE  25342.25003472 -.00014376  00000+0 -23979-3 0  9999", "line2": "2 66484  43.0004  97.2498 0001658 268.6088 242.0488 15.50565374  4911"}}, "geometry": {"type": "Point", "coordinates": [93.66488787896635, -0.6790270589316862]}}, {"type": "Feature", "properties": {"norad_id": 66485, "name": "STARLINK-34774", "group": "last-30-days", "lat": -35.558354290707356, "lon": 18.66586320709839, "alt_km": 417.2890950662668, "timestamp": "2025-12-08T17:43:03.631724+00:00", "meta": {"OBJECT_NAME": "STARLINK-34774", "OBJECT_ID": "2025-263A", "EPOCH": "2025-12-08T06:00:02.999808", "MEAN_MOTION": 15.5056059, "ECCENTRICITY": 0.00015213, "INCLINATION": 43.0004, "RA_OF_ASC_NODE": 151.4279, "ARG_OF_PERICENTER": 276.2464, "MEAN_ANOMALY": 113.826, "EPHEMERIS_TYPE": 0, "CLASSIFICATION_TYPE": "U", "NORAD_CAT_ID": 66485, "ELEMENT_SET_NO": 999, "REV_AT_EPOCH": 491, "BSTAR": 0.0002887327, "MEAN_MOTION_DOT": 0.00016622, "MEAN_MOTION_DDOT": 0}, "tle": {"line1": "1 66485U 25263A   25342.25003472  .00016622  00000+0  28873-3 0  9993", "line2": "2 66485  43.0004 151.4279 0001521 276.2464 113.8260 15.50560590  4912"}}, "geometry": {"type": "Point", "coordinates": [18.66586320709839, -35.558354290707356]}}, {"type": "Feature", "properties": {"norad_id": 66486, "name": "STARLINK-34844", "group": "last-30-days", "lat": -36.36620891847437, "lon": 20.769083590642364, "alt_km": 417.3959102688532, "timestamp": "2025-12-08T17:43:03.631735+00:00", "meta": {"OBJECT_NAME": "STARLINK-34844", "OBJECT_ID": "2025-263B", "EPOCH": "2025-12-08T06:00:02.999808", "MEAN_MOTION": 15.50572223, "ECCENTRICITY": 0.00016961, "INCLINATION": 43.0005, "RA_OF_ASC_NODE": 151.4216, "ARG_OF_PERICENTER": 279.9793, "MEAN_ANOMALY": 112.0158, "EPHEMERIS_TYPE": 0, "CLASSIFICATION_TYPE": "U", "NORAD_CAT_ID": 66486, "ELEMENT_SET_NO": 999, "REV_AT_EPOCH": 486, "BSTAR": -0.00070441288, "MEAN_MOTION_DOT": -0.00041439, "MEAN_MOTION_DDOT": 0}, "tle": {"line1": "1 66486U 25263B   25342.25003472 -.00041439  00000+0 -70441-3 0  9998", "line2": "2 66486  43.0005 151.4216 0001696 279.9793 112.0158 15.50572223  4860"}}, "geometry": {"type": "Point", "coordinates": [20.769083590642364, -36.36620891847437]}}, {"type": "Feature", "properties": {"norad_id": 66487, "name": "STARLINK-34733", "group": "last-30-days", "lat": -37.14638477593013, "lon": 22.948658041456863, "alt_km": 417.3992929256365, "timestamp": "2025-12-08T17:43:03.631745+00:00", "meta": {"OBJECT_NAME": "STARLINK-34733", "OBJECT_ID": "2025-263C", "EPOCH": "2025-12-08T06:00:02.999808", "MEAN_MOTION": 15.50568399, "ECCENTRICITY": 0.00016698, "INCLINATION": 43.0004, "RA_OF_ASC_NODE": 151.4185, "ARG_OF_PERICENTER": 278.6013, "MEAN_ANOMALY": 115.3116, "EPHEMERIS_TYPE": 0, "CLASSIFICATION_TYPE": "U", "NORAD_CAT_ID": 66487, "ELEMENT_SET_NO": 999, "REV_AT_EPOCH": 491, "BSTAR": -0.00059876208, "MEAN_MOTION_DOT": -0.00035297, "MEAN_MOTION_DDOT": 0}, "tle": {"line1": "1 66487U 25263C   25342.25003472 -.00035297  00000+0 -59876-3 0  9993", "line2": "2 66487  43.0004 151.4185 0001669 278.6013 115.3116 15.50568399  4911"}}, "geometry": {"type": "Point", "coordinates": [22.948658041456863, -37.14638477593013]}}, {"type": "Feature", "properties": {"norad_id": 66488, "name": "STARLINK-35515", "group": "last-30-days", "lat": -37.886088974475584, "lon": 25.170281577678896, "alt_km": 417.44397463954465, "timestamp": "2025-12-08T17:43:03.631756+00:00", "meta": {"OBJECT_NAME": "STARLINK-35515", "OBJECT_ID": "2025-263D", "EPOCH": "2025-12-08T06:00:02.999808", "MEAN_MOTION": 15.50568782, "ECCENTRICITY": 0.00016139, "INCLINATION": 43.0005, "RA_OF_ASC_NODE": 151.4126, "ARG_OF_PERICENTER": 278.771, "MEAN_ANOMALY": 117.0588, "EPHEMERIS_TYPE": 0, "CLASSIFICATION_TYPE": "U", "NORAD_CAT_ID": 66488, "ELEMENT_SET_NO": 999, "REV_AT_EPOCH": 491, "BSTAR": -0.00060593401, "MEAN_MOTION_DOT": -0.00035714, "MEAN_MOTION_DDOT": 0}, "tle": {"line1": "1 66488U 25263D   25342.25003472 -.00035714  00000+0 -60593-3 0  9996", "line2": "2 66488  43.0005 151.4126 0001613 278.7710 117.0588 15.50568782  4910"}}, "geometry": {"type": "Point", "coordinates": [25.170281577678896, -37.886088974475584]}}]}